{
  "type": "FeatureCollection",
  "features": [
    {
      "type": "Feature",
      "geometry": { "type": "MultiPoint", "coordinates": [[18.0, 16.0]] },
      "properties": {
        "id": "sahelanthropus", "entity_id": "sahelanthropus",
        "name": "Sahelanthropus tchadensis", "category": "species",
        "start_year": -6999999, "end_year": -5999999,
        "description": "One of the oldest known species in the human lineage, known from a cranium ('Toumaï') found in the Djurab Desert of Chad. Possibly near the split between hominins and chimpanzees."
      }
    },
    {
      "type": "Feature",
      "geometry": { "type": "MultiPoint", "coordinates": [[40.5, 11.1], [35.2, -3.2], [36.0, 4.0]] },
      "properties": {
        "id": "australopithecus-afarensis", "entity_id": "australopithecus-afarensis",
        "name": "Australopithecus afarensis", "category": "species",
        "start_year": -3899999, "end_year": -2899999,
        "description": "Small-brained, habitually bipedal hominin of East Africa, famous for the 'Lucy' skeleton (Hadar, Ethiopia) and the Laetoli footprints (Tanzania)."
      }
    },
    {
      "type": "Feature",
      "geometry": { "type": "MultiPoint", "coordinates": [[35.35, -2.99], [36.4, 3.9], [40.0, 11.0]] },
      "properties": {
        "id": "homo-habilis", "entity_id": "homo-habilis",
        "name": "Homo habilis", "category": "species",
        "start_year": -2399999, "end_year": -1399999,
        "description": "Early member of the genus Homo from East Africa, long associated with the first stone tools of the Oldowan industry."
      }
    },
    {
      "type": "Feature",
      "geometry": { "type": "MultiPoint", "coordinates": [[36.0, 3.9], [44.3, 41.3], [110.8, -7.4], [115.9, 39.7], [111.4, -7.3]] },
      "properties": {
        "id": "homo-erectus", "entity_id": "homo-erectus",
        "name": "Homo erectus", "category": "species",
        "start_year": -1899999, "end_year": -109999,
        "description": "Long-legged, larger-brained hominin and the first to spread widely beyond Africa, reaching the Caucasus (Dmanisi), China (Zhoukoudian) and Java (Sangiran, Ngandong)."
      }
    },
    {
      "type": "Feature",
      "geometry": { "type": "MultiPoint", "coordinates": [[6.95, 51.23], [44.2, 36.8], [-5.35, 36.13], [1.72, 45.0], [84.68, 51.4]] },
      "properties": {
        "id": "neanderthal", "entity_id": "neanderthal",
        "name": "Homo neanderthalensis (Neanderthal)", "category": "species",
        "start_year": -399999, "end_year": -39999,
        "description": "Cold-adapted hominins of Europe and western Asia who buried their dead, made sophisticated Levallois/Mousterian tools and interbred with Homo sapiens."
      }
    },
    {
      "type": "Feature",
      "geometry": { "type": "MultiPoint", "coordinates": [[-8.87, 31.85], [35.95, 5.4], [34.97, 32.67], [143.0, -33.7], [1.0, 44.94]] },
      "properties": {
        "id": "homo-sapiens", "entity_id": "homo-sapiens",
        "name": "Homo sapiens", "category": "species",
        "start_year": -299999, "end_year": 1,
        "description": "Anatomically modern humans, first known from Jebel Irhoud (Morocco) about 300,000 years ago, later spreading across every continent except Antarctica."
      }
    },
    {
      "type": "Feature",
      "geometry": { "type": "MultiPoint", "coordinates": [[40.4, 11.1], [35.35, -2.99], [36.4, 3.9], [5.4, 36.2], [36.6, 1.2]] },
      "properties": {
        "id": "oldowan", "entity_id": "oldowan",
        "name": "Oldowan", "category": "culture",
        "start_year": -2599999, "end_year": -1699999, "weight": 0.9,
        "description": "The oldest widespread stone-tool industry: simple flakes and choppers struck from cobbles, first documented at Gona (Ethiopia) and named after Olduvai Gorge."
      }
    },
    {
      "type": "Feature",
      "geometry": { "type": "MultiPoint", "coordinates": [[35.8, 4.0], [36.4, -1.6], [35.63, 33.0], [-0.68, 50.86], [79.9, 13.2], [25.0, -28.0]] },
      "properties": {
        "id": "acheulean", "entity_id": "acheulean",
        "name": "Acheulean", "category": "culture",
        "start_year": -1759999, "end_year": -129999, "weight": 0.8,
        "description": "Industry defined by symmetrical bifacial handaxes, made for well over a million years across Africa, western Eurasia and South Asia."
      }
    },
    {
      "type": "Feature",
      "geometry": { "type": "MultiPoint", "coordinates": [[1.06, 44.99], [34.97, 32.56], [44.2, 36.8], [1.2, 44.85], [-5.35, 36.13], [6.95, 51.23]] },
      "properties": {
        "id": "levallois-mousterian", "entity_id": "levallois-mousterian",
        "name": "Levallois / Mousterian", "category": "culture",
        "start_year": -299999, "end_year": -39999, "weight": 0.8,
        "description": "Middle Palaeolithic technology using the Levallois prepared-core technique to produce standardised flakes; strongly associated with Neanderthals but also used by early Homo sapiens."
      }
    },
    {
      "type": "Feature",
      "geometry": { "type": "MultiPoint", "coordinates": [[0.88, 43.22], [9.75, 48.38], [4.42, 44.39], [25.43, 42.95], [20.4, 48.07]] },
      "properties": {
        "id": "aurignacian", "entity_id": "aurignacian",
        "name": "Aurignacian", "category": "culture",
        "start_year": -42999, "end_year": -25999, "weight": 0.9,
        "description": "Early Upper Palaeolithic culture of Homo sapiens in Europe, linked to the earliest figurative art (Chauvet Cave, Hohle Fels figurines) and bone flutes."
      }
    },
    {
      "type": "Feature",
      "geometry": { "type": "MultiPoint", "coordinates": [[16.65, 48.88], [15.4, 48.32], [39.05, 51.39], [-4.25, 51.55], [0.85, 44.75]] },
      "properties": {
        "id": "gravettian", "entity_id": "gravettian",
        "name": "Gravettian", "category": "culture",
        "start_year": -32999, "end_year": -20999, "weight": 0.9,
        "description": "Pan-European Upper Palaeolithic culture known for 'Venus' figurines (Willendorf, Dolní Věstonice), mammoth-bone dwellings and elaborate burials."
      }
    },
    {
      "type": "Feature",
      "geometry": { "type": "MultiPoint", "coordinates": [[35.05, 31.98], [35.58, 33.08], [35.44, 31.87], [35.0, 32.7]] },
      "properties": {
        "id": "natufian", "entity_id": "natufian",
        "name": "Natufian", "category": "culture",
        "start_year": -14999, "end_year": -11499, "weight": 1.0,
        "description": "Late Epipalaeolithic culture of the Levant whose semi-sedentary villages and wild-cereal harvesting set the stage for the invention of agriculture."
      }
    },
    {
      "type": "Feature",
      "geometry": { "type": "MultiPoint", "coordinates": [[8.7, 50.1], [14.4, 50.1], [19.9, 50.0], [17.1, 48.1], [5.7, 50.8], [11.6, 51.4]] },
      "properties": {
        "id": "linear-pottery", "entity_id": "linear-pottery",
        "name": "Linear Pottery (LBK)", "category": "culture",
        "start_year": -5499, "end_year": -4499, "weight": 0.9,
        "description": "Early Neolithic farming culture that spread rapidly across central Europe, named for its band-decorated pottery and known for large timber longhouses."
      }
    },
    {
      "type": "Feature",
      "geometry": { "type": "Polygon", "coordinates": [[[29.8, 31.4], [32.4, 31.3], [31.4, 29.5], [31.0, 27.0], [32.9, 24.1], [32.6, 24.0], [30.7, 27.0], [30.9, 29.5], [29.8, 31.4]]] },
      "properties": {
        "id": "egypt-old-kingdom", "entity_id": "egypt",
        "name": "Ancient Egypt (Old Kingdom)", "category": "civilization",
        "start_year": -2685, "end_year": -2180,
        "description": "The 'Age of the Pyramids': a centralised state ruled from Memphis that controlled the Nile valley from the Delta to the First Cataract at Aswan."
      }
    },
    {
      "type": "Feature",
      "geometry": { "type": "Polygon", "coordinates": [[[29.8, 31.4], [32.4, 31.3], [31.4, 29.5], [31.0, 27.0], [33.1, 24.1], [31.6, 21.7], [31.0, 21.8], [32.5, 24.0], [30.7, 27.0], [30.9, 29.5], [29.8, 31.4]]] },
      "properties": {
        "id": "egypt-middle-kingdom", "entity_id": "egypt",
        "name": "Ancient Egypt (Middle Kingdom)", "category": "civilization",
        "start_year": -2054, "end_year": -1649,
        "description": "Reunified Egypt that pushed south into Nubia, fortifying the Second Cataract, and produced a classical age of Egyptian literature."
      }
    },
    {
      "type": "Feature",
      "geometry": { "type": "Polygon", "coordinates": [[[29.8, 31.4], [32.4, 31.2], [34.5, 31.6], [35.0, 33.0], [35.8, 34.6], [36.7, 34.6], [36.4, 33.0], [35.5, 31.0], [34.3, 29.5], [32.6, 29.5], [31.4, 27.0], [33.2, 24.0], [32.8, 19.0], [31.8, 18.8], [31.0, 21.8], [32.5, 24.0], [30.6, 27.0], [30.8, 29.5], [29.8, 31.4]]] },
      "properties": {
        "id": "egypt-new-kingdom", "entity_id": "egypt",
        "name": "Ancient Egypt (New Kingdom)", "category": "civilization",
        "start_year": -1549, "end_year": -1068,
        "description": "Egypt at its imperial height under pharaohs such as Thutmose III and Ramesses II, ruling from Nubia's Fourth Cataract to the Levant."
      }
    },
    {
      "type": "Feature",
      "geometry": { "type": "Polygon", "coordinates": [[[67.0, 24.5], [69.0, 22.5], [72.5, 22.0], [74.0, 24.5], [76.5, 29.5], [77.5, 31.0], [74.0, 33.5], [71.0, 32.5], [69.5, 29.0], [67.0, 24.5]]] },
      "properties": {
        "id": "indus-valley", "entity_id": "indus-valley",
        "name": "Indus Valley Civilisation (Mature Harappan)", "category": "civilization",
        "start_year": -2599, "end_year": -1899,
        "description": "Bronze Age urban civilisation of planned cities such as Harappa and Mohenjo-daro, with standardised weights, drainage systems and a still-undeciphered script."
      }
    },
    {
      "type": "Feature",
      "geometry": { "type": "Polygon", "coordinates": [[[38.0, 36.8], [42.5, 37.2], [45.5, 35.5], [48.5, 32.0], [48.5, 30.0], [47.8, 29.8], [44.5, 31.5], [41.0, 34.0], [38.5, 35.5], [38.0, 36.8]]] },
      "properties": {
        "id": "akkadian-empire", "entity_id": "akkadian-empire",
        "name": "Akkadian Empire", "category": "civilization",
        "start_year": -2333, "end_year": -2153,
        "description": "Often called the first empire: founded by Sargon of Akkad, it united the Sumerian city-states and Akkadian speakers of Mesopotamia under one ruler."
      }
    },
    {
      "type": "Feature",
      "geometry": { "type": "MultiPolygon", "coordinates": [
        [[[21.1, 36.8], [22.5, 36.4], [23.2, 37.2], [24.0, 38.0], [23.6, 38.9], [22.6, 39.6], [21.3, 39.2], [21.1, 38.3], [21.1, 36.8]]],
        [[[23.5, 35.3], [24.5, 35.6], [26.3, 35.3], [26.0, 35.0], [24.5, 34.9], [23.5, 35.3]]]
      ] },
      "properties": {
        "id": "mycenaean-greece", "entity_id": "mycenaean-greece",
        "name": "Mycenaean Greece", "category": "civilization",
        "start_year": -1749, "end_year": -1099,
        "description": "Late Bronze Age Greek palace states such as Mycenae and Pylos, which used Linear B script and later absorbed Minoan Crete."
      }
    },
    {
      "type": "Feature",
      "geometry": { "type": "Polygon", "coordinates": [[[35.0, 32.0], [36.0, 36.5], [38.0, 37.5], [43.0, 37.5], [46.0, 36.0], [47.5, 33.0], [48.0, 30.5], [46.0, 30.5], [43.5, 32.5], [40.0, 33.5], [37.5, 31.5], [35.0, 32.0]]] },
      "properties": {
        "id": "neo-assyrian-empire", "entity_id": "neo-assyrian-empire",
        "name": "Neo-Assyrian Empire", "category": "civilization",
        "start_year": -910, "end_year": -608,
        "description": "Iron Age Mesopotamian superpower ruled from Nimrud and Nineveh, known for its professional army, mass deportations and monumental palace reliefs."
      }
    },
    {
      "type": "Feature",
      "geometry": { "type": "MultiPolygon", "coordinates": [
        [[[8.5, 37.2], [11.2, 37.1], [11.0, 35.5], [10.2, 34.0], [8.5, 34.5], [8.5, 37.2]]],
        [[[12.4, 38.1], [13.4, 38.2], [13.0, 37.5], [12.4, 37.7], [12.4, 38.1]]],
        [[[8.2, 41.1], [9.8, 41.1], [9.7, 39.0], [8.4, 38.9], [8.2, 41.1]]]
      ] },
      "properties": {
        "id": "carthage", "entity_id": "carthage",
        "name": "Carthage", "category": "civilization",
        "start_year": -813, "end_year": -145,
        "description": "Phoenician colony turned western Mediterranean maritime power, controlling North Africa, Sardinia and western Sicily until its destruction by Rome in 146 BCE. Shown at approximate peak extent."
      }
    },
    {
      "type": "Feature",
      "geometry": { "type": "Polygon", "coordinates": [[[26.0, 41.0], [30.0, 42.0], [41.0, 41.5], [50.0, 41.0], [55.0, 43.0], [62.0, 43.5], [70.0, 40.0], [72.0, 36.0], [74.0, 32.0], [71.0, 25.0], [61.0, 25.0], [57.0, 26.5], [50.0, 30.0], [48.0, 29.5], [42.0, 31.0], [37.0, 29.0], [34.5, 27.5], [32.5, 24.0], [30.0, 24.0], [29.5, 31.0], [32.0, 31.2], [34.5, 31.6], [36.0, 36.0], [30.0, 36.5], [26.5, 37.0], [26.0, 41.0]]] },
      "properties": {
        "id": "achaemenid-persia", "entity_id": "achaemenid-persia",
        "name": "Achaemenid Persian Empire", "category": "civilization",
        "start_year": -549, "end_year": -329,
        "description": "Founded by Cyrus the Great, the largest empire the world had yet seen, stretching from Egypt and Anatolia to the Indus, administered through satrapies and the Royal Road."
      }
    },
    {
      "type": "Feature",
      "geometry": { "type": "MultiPolygon", "coordinates": [
        [[[-9.5, 43.5], [-1.5, 43.5], [-4.5, 48.5], [2.0, 51.0], [6.0, 51.5], [7.5, 47.5], [13.5, 46.5], [13.5, 45.6], [18.5, 40.1], [15.6, 38.0], [12.5, 41.5], [10.0, 43.8], [6.5, 43.1], [3.0, 43.2], [0.0, 38.7], [-2.0, 36.7], [-5.6, 36.0], [-9.0, 37.0], [-9.5, 43.5]]],
        [[[13.5, 45.6], [19.0, 45.0], [28.0, 44.0], [29.0, 41.2], [36.0, 41.5], [41.0, 41.0], [38.5, 37.0], [36.2, 36.5], [35.5, 33.0], [34.3, 31.3], [32.0, 36.8], [29.0, 36.7], [27.2, 37.5], [26.2, 39.5], [23.0, 40.2], [24.0, 38.0], [22.5, 36.4], [21.1, 36.8], [19.5, 40.0], [18.5, 42.4], [13.5, 45.6]]],
        [[[-6.0, 35.8], [-1.0, 35.2], [10.0, 37.3], [11.0, 35.0], [10.0, 33.5], [20.0, 30.5], [20.0, 32.8], [25.0, 31.8], [32.3, 31.3], [31.0, 27.0], [33.0, 24.0], [32.5, 24.0], [30.5, 27.0], [29.0, 30.0], [19.5, 30.0], [10.0, 32.0], [8.0, 34.0], [-1.0, 34.5], [-6.0, 34.5], [-6.0, 35.8]]]
      ] },
      "properties": {
        "id": "roman-empire-augustan", "entity_id": "roman-empire",
        "name": "Roman Empire (Augustan)", "category": "civilization",
        "start_year": -26, "end_year": 1,
        "description": "The Roman state under Augustus after the end of the Republic, encircling the Mediterranean from Hispania and Gaul to Syria and Egypt."
      }
    },
    {
      "type": "Feature",
      "geometry": { "type": "Polygon", "coordinates": [[[98.0, 40.0], [105.0, 41.5], [112.0, 41.5], [118.0, 40.5], [122.0, 40.0], [124.0, 41.5], [126.5, 39.0], [122.0, 37.0], [119.0, 35.0], [121.5, 32.0], [122.0, 29.0], [119.5, 25.5], [116.0, 22.8], [110.0, 21.0], [106.0, 21.5], [103.0, 23.0], [101.0, 26.0], [102.0, 30.0], [100.0, 35.0], [96.0, 38.0], [98.0, 40.0]]] },
      "properties": {
        "id": "han-dynasty", "entity_id": "han-dynasty",
        "name": "Han Dynasty", "category": "civilization",
        "start_year": -201, "end_year": 1,
        "description": "Chinese imperial dynasty that consolidated Qin unification, opened the Silk Road to Central Asia and established Confucianism as state ideology."
      }
    }
  ]
}
